JCAT , SatcatLaunch_Tag Piece     , Type     , Name                        , PLName                      , LDate      , Parent      , SDate              , Primary, DDate              , Status Dest   , Owner       , State , Manufacturer, Bus              , Motor       , Mass     , DryMass   , TotMass  , Length, Diamete, Span   , Shape                    , ODate      , Perigee, Apogee, Inc   , OpOrbitOQU AltNames, STATUS, OBJECT_NAME             , OBJECT_ID , EPOCH                     , MEAN_MOTION, ECCENTRICITY, INCLINATION, RA_OF_ASC_NODE, ARG_OF_PERICENTER, MEAN_ANOMALY, EPHEMERIS_TYPE, CLASSIFICATION_TYPE, NORAD_CAT_ID, ELEMENT_SET_NO, REV_AT_EPOCH, BSTAR         , MEAN_MOTION_DOT, MEAN_MOTION_DDOT, LAST_UPDATED       , DATA_SOURCE               , TLE_LINE1                                                            , TLE_LINE2                                                            , N2YO_SAT_NAME              , TLE_FETCHED
26463, 26463 2000-045   2000-045A , P        , Cluster Rumba               , Cluster FM5 (C1)            , 2000 Aug  9, S26465      , 2000 Aug  9 1243   , Earth  , -                  , O      -      , ESA         , I-ESA , ASTDF       , Cluster          , S400        , 1186     , 550       , 1186     , 1.3   , 2.9    , 100.0  , Cyl + 4 Ant              , 2000 Aug 17, 17240  , 120715, 90.89 , VHEO   -   NAIF183 , ACTIVE, CLUSTER II-FM5 (RUMBA)  , 2000-045A , 2025-09-27T08:08:06.475776,  0.42924252, 0.9115182   ,    147.3293,        94.4957,          314.2475,       1.8336,            0.0, U                  ,      26463.0,          999.0,       1900.0, 0.0           , 0.0001386      , -7.8438e-06     , 2025-10-04 23:19:22, planet4589.org + Celestrak, 1 26463U 00045A   25270.33896384  .00013860 -78438-5  00000+0 0  9993, 2 26463 147.3293  94.4957 9115182 314.2475   1.8336  0.42924252 19004, CLUSTER II-FM5             , YES
26464, 26464 2000-045   2000-045B , P        , Cluster Tango               , Cluster FM8 (C4)            , 2000 Aug  9, S26465      , 2000 Aug  9 1243   , Earth  , -                  , O      -      , ESA         , I-ESA , ASTDF       , Cluster          , S400        , 1186     , 550       , 1186     , 1.3   , 2.9    , 100.0  , Cyl + 4 Ant              , 2000 Aug 17, 16809  , 120768, 90.70 , VHEO   -   NAIF196 , ACTIVE, CLUSTER II-FM8 (TANGO)  , 2000-045B , 2025-10-03T17:42:36.535968,  0.44425569, 0.86266534  ,    146.593 ,        19.2826,          234.6312,       0.6136,            0.0, U                  ,      26464.0,          999.0,       1916.0, 0.0           , 1.07e-05       , 0.0             , 2025-10-04 23:19:22, planet4589.org + Celestrak, 1 26464U 00045B   25276.73792287  .00001070  00000-0  00000-0 0  9996, 2 26464 146.5930  19.2826 8626653 234.6312   0.6136  0.44425569 19169, CLUSTER II-FM8             , YES
26554, 26554 2000-059   2000-059A , P      O , GE-1A                       , GE-1A                       , 2000 Oct  1, S26557      , 2000 Oct  2 0441   , Earth  , 2003 Dec           , N      -      , AMCG/GECAP  , US    , LMCSS       , A2100AX          , Leros 1C    , 3593     , 1601      , 3593     , 6.1   , 2.5    , 27.0   , Box + 2 Pan              , 2000 Oct 11, 35768  , 35776 , 0.05  , GEO/D  -           , ACTIVE, NSS-11                  , 2000-059A , 2025-10-03T12:46:22.058400,  1.00271255, 0.00030917  ,      1.4562,        84.4587,          106.1836,     189.4583,            0.0, U                  ,      26554.0,          999.0,       3871.0, 0.0           , 2.7e-07        , 0.0             , 2025-10-04 23:19:22, planet4589.org + Celestrak, 1 26554U 00059A   25277.45996711  .00000027  00000-0  00000+0 0  9999, 2 26554   1.4587  84.4421 0003118 109.3222 161.2457  1.00271353 38722, NSS 11 (AAP-1)             , YES
26575, 26575 2000-065   2000-065A , P ------c, DSCS III B-11               , DSCS III B-11               , 2000 Oct 20, S26576      , 2000 Oct 20 0106   , Earth  , -                  , O      GEO/S? , AFSMC/DISA  , US    , LMVF        , DSCS III         , AOCS        , 1232     , 900       , 1232     , 2.1   , 1.9    , 9.5    , Box + 2 Pan              , 2001 Jan  1, 35780? , 35800?, 1.00? , GEO/S  -   USA 153:, ACTIVE, USA 153                 , 2000-065A , 2025-10-03T05:43:17.745312,  1.00278942, 0.00016071  ,     11.1792,        37.4719,          150.7398,      44.0564,            0.0, U                  ,      26575.0,          999.0,       3035.0, 0.0           , -3.17e-06      , 0.0             , 2025-10-04 23:19:22, planet4589.org + Celestrak, 1 26575U 00065A   25276.23839983 -.00000317  00000-0  00000-0 0  9995, 2 26575  11.1792  37.4719 0001607 150.7398  44.0564  1.00278942 30353, USA 153                    , YES
26580, 26580 2000-067   2000-067A , P      O , GE 6                        , GE 6                        , 2000 Oct 21, S26583      , 2000 Oct 22 0441   , Earth  , 2001 Nov           , N      -      , AMCG        , US    , LMCSS       , A2100AX          , Leros 1C    , 3552     , 1600    ? , 3552     , 6.1  ?, 2.5  ? , 27.0   , Box + 2 Pan              , 2001 Apr 23, 35781  , 35792 , 0.02  , GEO/S  -           , ACTIVE, AMC-6                   , 2000-067A , 2025-10-03T13:00:20.718144,  1.00270935, 0.00036606  ,      0.0541,        55.0054,          124.4042,     253.1519,            0.0, U                  ,      26580.0,          999.0,       9131.0, 0.0           , 8.9e-07        , 0.0             , 2025-10-04 23:19:22, planet4589.org + Celestrak, 1 26580U 00067A   25277.52017255  .00000089  00000-0  00000+0 0  9990, 2 26580   0.0563  56.4876 0003650 125.3452 243.8665  1.00271130 91323, AMC-6 (GE-6)               , YES
26605, 26605 2000-071   2000-071A , P        , GPS IIR-6                   , GPS SVN 41                  , 2000 Nov 10, S26607      , 2000 Nov 10 1739   , Earth  , -                  , O      -      , AFSMC       , US    , LMMS        , Series 4000      , Star 37XFP  , 1077     , 910       , 2032     , 1.5   , 1.9    , 19.3   , Box + 2 Pan              , 2000 Nov 13, 20177  , 20498 , 55.06 , MEO    -   USA 154:, ACTIVE, NAVSTAR 49 (USA 154)    , 2000-071A , 2025-10-02T08:50:58.006752,  2.00552466, 0.016573    ,     55.4785,       105.1431,          263.6148,     262.0413,            0.0, U                  ,      26605.0,          999.0,      18234.0, 0.0           , 7e-07          , 0.0             , 2025-10-04 23:19:22, planet4589.org + Celestrak, 1 26605U 00071A   25275.36872693  .00000070  00000-0  00000+0 0  9998, 2 26605  55.4785 105.1431 0165730 263.6148 262.0413  2.00552466182348, NAVSTAR 49 (USA 154)       , YES
26702, 26702 2001-007   2001-007A , P        , Odin                        , Odin                        , 2001 Feb 20, S26703      , 2001 Feb 20 0904   , Earth  , -                  , O      -      , SSC         , S     , SAABSA      , Odin             , -           , 250      , 250       , 250      , 2.0   , 1.1    , 3.8    , Box + Plate + Ant        , 2001 Mar  2, 611    , 621   , 97.83 , LEO/S  -           , ACTIVE, ODIN                    , 2001-007A , 2025-10-03T01:54:05.242176, 15.46006421, 0.00048835  ,     97.4355,       302.0159,           51.4254,     308.7432,            0.0, U                  ,      26702.0,          999.0,      34939.0, 0.00082788809 , 0.00040472     , 0.0             , 2025-10-04 23:19:22, planet4589.org + Celestrak, 1 26702U 01007A   25277.50312500  .00037228  00000-0  75911-3 0  9992, 2 26702  97.4350 303.4763 0004751  47.6371 312.5280 15.46117807349612, ODIN                       , YES
26715, 26715 2001-009   2001-009A , P ------c, Milstar 4                   , Milstar DFS-4               , 2001 Feb 27, S26716      , 2001 Feb 28 0354?  , Earth  , -                  , O      GEO/S? , AFSMC       , US    , LMMS        , Milstar          , AOCS        , 4500     , 4200    ? , 4500     , 15.5  , 5.0  ? , 35.0   , Truss + Ant              , 2001 Feb 28, 35764  , 35768 , 4.50  , GEO/ID -   USA 157:, ACTIVE, USA 157 (MILSTAR-2 2)   , 2001-009A , 2025-10-03T10:38:00.803040,  1.00272995, 0.00438165  ,     11.2583,        21.2804,          181.8358,     178.729 ,            0.0, U                  ,      26715.0,          999.0,       3036.0, 0.0           , 1.17e-06       , 0.0             , 2025-10-04 23:19:22, planet4589.org + Celestrak, 1 26715U 01009A   25277.50578551  .00000117  00000-0  00000+0 0  9998, 2 26715  11.2596  21.2745 0043894 182.0196 202.1811  1.00273288 30383, USA 157                    , YES
26720, 26720 2001-011   2001-011B , P        , BSAT-2a                     , BSAT-2a                     , 2001 Mar  8, S26721      , 2001 Mar  8 2327   , Earth  , -                  , O      -      , BSAT        , J     , OSCD?       , OSC Star 1       , Star 30CBP  , 650      , 490       , 1317     , 3.8   , 2.5    , 16.1   , Box + 2 Pan              , 2001 Mar 13, 35703  , 36251 , 0.22  , GEO/D  -           , ACTIVE, BSAT-2A                 , 2001-011B , 2025-10-03T12:54:51.244704,  0.99178766, 0.00076222  ,     10.1853,        49.7881,          179.187 ,     183.085 ,            0.0, U                  ,      26720.0,          999.0,       8943.0, 0.0           , 1.7e-07        , 0.0             , 2025-10-04 23:19:22, planet4589.org + Celestrak, 1 26720U 01011B   25276.53809311  .00000017  00000-0  00000-0 0  9990, 2 26720  10.1853  49.7881 0007622 179.1870 183.0850  0.99178766 89436, BSAT-2A                    , YES
